H1 CPF 01  gfz 2021 10 25 00  7981 tandemx   
H2 1003001  6202 36605    2021 10 25 00 59 42 2021 10 30 00 00 42   120 1 1  0 0 0
H9
10 0 59514  12942.000000  0    3327680.336   3279297.485   5052502.309
10 0 59514  13062.000000  0    3919852.680   3553813.251   4402053.021
10 0 59514  13182.000000  0    4447695.663   3756417.797   3674122.070
10 0 59514  13302.000000  0    4900684.540   3884771.081   2881505.763
10 0 59514  13422.000000  0    5269580.876   3938010.742   2038151.212
10 0 59514  13542.000000  0    5546626.039   3916746.112   1158908.570
10 0 59514  13662.000000  0    5725707.734   3823022.506    259263.213
10 0 59514  13782.000000  0    5802494.348   3660255.281   -644945.602
10 0 59514  13902.000000  0    5774533.180   3433135.789  -1537812.391
10 0 59514  14022.000000  0    5641310.876   3147511.577  -2403653.384
10 0 59514  14142.000000  0    5404274.241   2810244.664  -3227287.954
10 0 59514  14262.000000  0    5066812.942   2429051.784  -3994308.017
10 0 59514  14382.000000  0    4634204.154   2012330.202  -4691331.568
10 0 59514  14502.000000  0    4113518.767   1568972.851  -5306232.309
10 0 59514  14622.000000  0    3513496.366   1108179.769  -5828342.440
10 0 59514  14742.000000  0    2844390.477    639269.247  -6248628.298
10 0 59514  14862.000000  0    2117786.998    171492.028  -6559835.200
10 0 59514  14982.000000  0    1346401.741   -286146.997  -6756600.887
10 0 59514  15102.000000  0     543859.599   -725058.053  -6835539.747
10 0 59514  15222.000000  0    -275543.714  -1137223.641  -6795293.941
10 0 59514  15342.000000  0   -1097089.745  -1515340.456  -6636553.176
10 0 59514  15462.000000  0   -1905895.212  -1852945.631  -6362045.215
10 0 59514  15582.000000  0   -2687175.853  -2144525.645  -5976493.704
10 0 59514  15702.000000  0   -3426510.839  -2385605.521  -5486545.428
10 0 59514  15822.000000  0   -4110107.339  -2572818.892  -4900668.228
10 0 59514  15942.000000  0   -4725060.522  -2703956.381  -4229016.002
10 0 59514  16062.000000  0   -5259601.888  -2777990.832  -3483263.096
10 0 59514  16182.000000  0   -5703332.446  -2795078.996  -2676409.871
10 0 59514  16302.000000  0   -6047434.752  -2756538.719  -1822560.824
10 0 59514  16422.000000  0   -6284857.801  -2664802.190   -936679.312
10 0 59514  16542.000000  0   -6410470.358  -2523345.539    -34322.657
10 0 59514  16662.000000  0   -6421177.685  -2336596.215    868636.688
10 0 59514  16782.000000  0   -6315998.864  -2109820.263   1756298.900
10 0 59514  16902.000000  0   -6096099.998  -1848992.232   2613026.876
10 0 59514  17022.000000  0   -5764783.650  -1560651.066   3423729.648
10 0 59514  17142.000000  0   -5327436.569  -1251745.882   4174136.013
10 0 59514  17262.000000  0   -4791432.875   -929475.039   4851050.516
10 0 59514  17382.000000  0   -4166000.408   -601123.870   5442584.568
10 0 59514  17502.000000  0   -3462054.011   -273904.628   5938363.665
10 0 59514  17622.000000  0   -2691996.218     45199.016   6329706.050
10 0 59514  17742.000000  0   -1869491.020    349577.985   6609768.825
10 0 59514  17862.000000  0   -1009216.381    633131.151   6773661.257
10 0 59514  17982.000000  0    -126600.192    890385.712   6818524.533
10 0 59514  18102.000000  0     762456.231   1116601.492   6743577.910
10 0 59514  18222.000000  0    1641863.578   1307858.127   6550131.535
10 0 59514  18342.000000  0    2495634.849   1461123.359   6241564.711
10 0 59514  18462.000000  0    3308175.726   1574301.093   5823271.070
10 0 59514  18582.000000  0    4064572.106   1646258.848   5302569.609
10 0 59514  18702.000000  0    4750866.792   1676834.165   4688582.144
10 0 59514  18822.000000  0    5354323.516   1666820.775   3992081.208
10 0 59514  18942.000000  0    5863674.187   1617933.359   3225304.092
10 0 59514  19062.000000  0    6269337.204   1532751.828   2401737.350
10 0 59514  19182.000000  0    6563607.403   1414645.684   1535879.165
10 0 59514  19302.000000  0    6740810.496   1267681.285    642978.439
10 0 59514  19422.000000  0    6797417.287   1096513.744   -261240.596
10 0 59514  19542.000000  0    6732116.161    906266.081  -1160864.578
10 0 59514  19662.000000  0    6545838.594    702398.144  -2040080.022
10 0 59514  19782.000000  0    6241740.818    490568.983  -2883457.960
10 0 59514  19902.000000  0    5825141.382    276497.378  -3676229.878
10 0 59514  20022.000000  0    5303416.606     65823.355  -4404548.693
10 0 59514  20142.000000  0    4685855.968   -136025.925  -5055728.531
10 0 59514  20262.000000  0    3983484.393   -323962.238  -5618458.522
10 0 59514  20382.000000  0    3208856.454   -493351.969  -6082990.630
10 0 59514  20502.000000  0    2375824.673   -640119.671  -6441298.750
10 0 59514  20622.000000  0    1499288.000   -760836.442  -6687204.960
10 0 59514  20742.000000  0     594927.025   -852793.128  -6816475.821
10 0 59514  20862.000000  0    -321073.288   -914056.087  -6826887.878
10 0 59514  20982.000000  0   -1232306.743   -943505.006  -6718260.825
10 0 59514  21102.000000  0   -2122432.814   -940852.860  -6492460.977
10 0 59514  21222.000000  0   -2975463.353   -906647.130  -6153371.674
10 0 59514  21342.000000  0   -3776042.947   -842252.878  -5706833.576
10 0 59514  21462.000000  0   -4509723.915   -749817.775  -5160555.908
10 0 59514  21582.000000  0   -5163229.493   -632218.967  -4523994.343
10 0 59514  21702.000000  0   -5724699.584   -492993.471  -3808198.979
10 0 59514  21822.000000  0   -6183916.277   -336252.574  -3025632.507
10 0 59514  21942.000000  0   -6532501.755   -166581.181  -2189959.392
10 0 59514  22062.000000  0   -6764084.588     11074.444  -1315810.826
10 0 59514  22182.000000  0   -6874430.257    191529.944   -418526.905
10 0 59514  22302.000000  0   -6861527.763    369492.599    486119.212
10 0 59514  22422.000000  0   -6725632.221    539694.896   1382204.857
10 0 59514  22542.000000  0   -6469263.820    697028.089   2253946.598
10 0 59514  22662.000000  0   -6097160.391    836672.526   3085987.840
10 0 59514  22782.000000  0   -5616184.347    954221.436   3863677.781
10 0 59514  22902.000000  0   -5035187.215   1045794.718   4573334.586
10 0 59514  23022.000000  0   -4364836.683   1108140.024   5202488.060
10 0 59514  23142.000000  0   -3617410.859   1138718.593   5740097.280
10 0 59514  23262.000000  0   -2806564.979   1135774.479   6176741.403
10 0 59514  23382.000000  0   -1947074.412   1098385.426   6504780.765
10 0 59514  23502.000000  0   -1054558.747   1026495.189   6718484.471
10 0 59514  23622.000000  0    -145195.048    920925.662   6814123.246
10 0 59514  23742.000000  0     764575.112    783369.227   6790029.784
10 0 59514  23862.000000  0    1658341.708    616361.605   6646625.818
10 0 59514  23982.000000  0    2520020.988    423235.676   6386415.332
10 0 59514  24102.000000  0    3334144.696    208056.606   6013944.583
10 0 59514  24222.000000  0    4086140.137    -24460.987   5535727.609
10 0 59514  24342.000000  0    4762594.788   -269052.300   4960137.943
10 0 59514  24462.000000  0    5351501.690   -520016.047   4297267.833
10 0 59514  24582.000000  0    5842480.961   -771340.976   3558756.240
10 0 59514  24702.000000  0    6226973.328  -1016842.220   2757587.095
10 0 59514  24822.000000  0    6498399.342  -1250304.561   1907859.839
10 0 59514  24942.000000  0    6652279.694  -1465628.264   1024537.352
10 0 59514  25062.000000  0    6686315.270  -1656975.850    123177.261
10 0 59514  25182.000000  0    6600424.027  -1818915.505   -780351.195
10 0 59514  25302.000000  0    6396731.046  -1946555.498  -1670155.675
10 0 59514  25422.000000  0    6079515.143  -2035668.080  -2530608.767
10 0 59514  25542.000000  0    5655111.646  -2082798.762  -3346628.666
10 0 59514  25662.000000  0    5131776.083  -2085358.671  -4103945.993
10 0 59514  25782.000000  0    4519513.417  -2041697.966  -4789352.651
10 0 59514  25902.000000  0    3829876.084  -1951159.285  -5390928.579
10 0 59514  26022.000000  0    3075735.809  -1814110.042  -5898241.051
10 0 59514  26142.000000  0    2271037.394  -1631952.852  -6302514.443
10 0 59514  26262.000000  0    1430538.878  -1407114.505  -6596772.021
10 0 59514  26382.000000  0     569540.294  -1143013.903  -6775945.502
10 0 59514  26502.000000  0    -296391.234   -844010.470  -6836952.765
10 0 59514  26622.000000  0   -1151696.958   -515333.052  -6778744.610
10 0 59514  26742.000000  0   -1981099.538   -162990.586  -6602321.174
10 0 59514  26862.000000  0   -2769869.792    206335.065  -6310715.630
10 0 59514  26982.000000  0   -3504082.147    585411.470  -5908947.536
10 0 59514  27102.000000  0   -4170858.229    966592.679  -5403946.642
10 0 59514  27222.000000  0   -4758594.457   1341968.128  -4804444.368
10 0 59514  27342.000000  0   -5257169.737   1703522.743  -4120835.585
10 0 59514  27462.000000  0   -5658128.345   2043304.787  -3365007.889
10 0 59514  27582.000000  0   -5954833.559   2353596.442  -2550142.962
10 0 59514  27702.000000  0   -6142589.444   2627084.743  -1690491.487
10 0 59514  27822.000000  0   -6218726.295   2857028.841   -801124.607
10 0 59514  27942.000000  0   -6182647.050   3037419.125    102333.663
10 0 59514  28062.000000  0   -6035831.935   3163123.355   1003988.273
10 0 59514  28182.000000  0   -5781799.895   3230016.304   1887961.553
10 0 59514  28302.000000  0   -5426028.894   3235089.257   2738681.916
10 0 59514  28422.000000  0   -4975837.263   3176536.650   3541166.164
10 0 59514  28542.000000  0   -4440228.854   3053817.114   4281290.458
10 0 59514  28662.000000  0   -3829705.786   2867687.486   4946042.223
10 0 59514  28782.000000  0   -3156055.649   2620210.338   5523748.890
10 0 59514  28902.000000  0   -2432116.795   2314735.151   6004281.620
10 0 59514  29022.000000  0   -1671526.714   1955852.418   6379228.548
10 0 59514  29142.000000  0    -888459.754   1549322.542   6642035.681
10 0 59514  29262.000000  0     -97361.184   1101981.215   6788113.951
10 0 59514  29382.000000  0     687318.787    621623.048   6814914.352
99
